IRIDIUM 26              
1 24903U 97043A   25105.59070029  .00000684  00000+0  22393-3 0  9995
2 24903  86.3948 136.9225 0002133  89.8274 270.3167 14.37081751448226
IRIDIUM 22              
1 24907U 97043E   25105.60834978  .00000620  00000+0  20728-3 0  9992
2 24907  86.3957 140.3980 0002281  93.1378 267.0079 14.35904070447796
DUMMY MASS 1            
1 24925U 97048A   25105.69744316  .00000788  00000+0  85032-4 0  9997
2 24925  86.3386 164.2141 0007372  27.5008 332.6606 14.86926367495846
DUMMY MASS 2            
1 24926U 97048B   25105.91843336  .00000801  00000+0  86959-4 0  9990
2 24926  86.3389 165.7062 0008531  34.9322 325.2461 14.86679781495658
IRIDIUM 29              
1 24944U 97051A   25105.72295365  .00000760  00000+0  25298-3 0  9998
2 24944  86.4010 170.0834 0002476  96.7283 263.4195 14.36406075444302
IRIDIUM 33              
1 24946U 97051C   25105.91553181  .00000500  00000+0  16919-3 0  9996
2 24946  86.3925 169.2583 0005580 285.1007  74.9572 14.34850391443817
IRIDIUM 28              
1 24948U 97051E   25105.87603761  .00000700  00000+0  22822-3 0  9995
2 24948  86.4013 167.5735 0001858  90.6196 269.5215 14.37333852444964
IRIDIUM 36              
1 24967U 97056C   25105.77932276  .00000852  00000+0  27791-3 0  9994
2 24967  86.4033 199.1839 0002060 101.1980 258.9449 14.37548585443251
